[Satellite]
VERSION=1.1
NAME=INSAT-3A
NICKNAME=INSAT-3A
TLE1=1 27714U 03013A   17186.13344600  .00000120  00000-0  00000-0 0  9995
TLE2=2 27714   1.1940  87.9579 0012127 240.5602  57.8635  0.99799374 52092
